{
  "type": "FeatureCollection",
  "features": [
    {
      "type": "Feature",
      "properties": {
        "norad_id": 33887,
        "name": "IRIDIUM 33 DEB",
        "group": "iridium-33-debris",
        "lat": -12.171347848688994,
        "lon": -2.95625069123329,
        "alt_km": 776.2237815586823,
        "timestamp": "2025-12-25T14:48:25.157730+00:00",
        "meta_object_name": "IRIDIUM 33 DEB",
        "meta_object_id": "1997-051BG",
        "meta_epoch": "2025-12-25T01:50:13.201152",
        "meta_mean_motion": 14.37231733,
        "meta_eccentricity": 0.00057849,
        "meta_inclination": 86.3043,
        "meta_ra_of_asc_node": 358.0753,
        "meta_arg_of_pericenter": 179.6912,
        "meta_mean_anomaly": 253.8578,
        "meta_ephemeris_type": 0,
        "meta_classification_type": "U",
        "meta_norad_cat_id": 33887,
        "meta_element_set_no": 999,
        "meta_rev_at_epoch": 88342,
        "meta_bstar": 0.00014791728,
        "meta_mean_motion_dot": 4.6e-06,
        "meta_mean_motion_ddot": 0,
        "tle_line1": "1 33887U 97051BG  25359.07654168  .00000460  00000+0  14792-3 0  9997",
        "tle_line2": "2 33887  86.3043 358.0753 0005784 179.6912 253.8578 14.37231733883422"
      },
      "geometry": {
        "type": "Point",
        "coordinates": [
          -2.95625069123329,
          -12.171347848688994
        ]
      }
    },
    {
      "type": "Feature",
      "properties": {
        "norad_id": 33953,
        "name": "IRIDIUM 33 DEB",
        "group": "iridium-33-debris",
        "lat": -36.34481077242893,
        "lon": 45.52181912997512,
        "alt_km": 716.3914769875046,
        "timestamp": "2025-12-25T14:48:25.157739+00:00",
        "meta_object_name": "IRIDIUM 33 DEB",
        "meta_object_id": "1997-051BN",
        "meta_epoch": "2025-12-25T03:40:07.885920",
        "meta_mean_motion": 14.55436981,
        "meta_eccentricity": 0.0017572,
        "meta_inclination": 86.3831,
        "meta_ra_of_asc_node": 48.3908,
        "meta_arg_of_pericenter": 64.7421,
        "meta_mean_anomaly": 349.0665,
        "meta_ephemeris_type": 0,
        "meta_classification_type": "U",
        "meta_norad_cat_id": 33953,
        "meta_element_set_no": 999,
        "meta_rev_at_epoch": 88484,
        "meta_bstar": 0.0011554078,
        "meta_mean_motion_dot": 5.052e-05,
        "meta_mean_motion_ddot": 0,
        "tle_line1": "1 33953U 97051BN  25359.15286905  .00005052  00000+0  11554-2 0  9994",
        "tle_line2": "2 33953  86.3831  48.3908 0017572  64.7421 349.0665 14.55436981884843"
      },
      "geometry": {
        "type": "Point",
        "coordinates": [
          45.52181912997512,
          -36.34481077242893
        ]
      }
    },
    {
      "type": "Feature",
      "properties": {
        "norad_id": 33960,
        "name": "IRIDIUM 33 DEB",
        "group": "iridium-33-debris",
        "lat": 81.69242143215166,
        "lon": -49.89620246564441,
        "alt_km": 600.0052605856836,
        "timestamp": "2025-12-25T14:48:25.157749+00:00",
        "meta_object_name": "IRIDIUM 33 DEB",
        "meta_object_id": "1997-051BV",
        "meta_epoch": "2025-12-25T05:26:42.763776",
        "meta_mean_motion": 14.85811675,
        "meta_eccentricity": 0.00071205,
        "meta_inclination": 86.2536,
        "meta_ra_of_asc_node": 283.625,
        "meta_arg_of_pericenter": 40.2762,
        "meta_mean_anomaly": 117.1515,
        "meta_ephemeris_type": 0,
        "meta_classification_type": "U",
        "meta_norad_cat_id": 33960,
        "meta_element_set_no": 999,
        "meta_rev_at_epoch": 89052,
        "meta_bstar": 0.0033149809,
        "meta_mean_motion_dot": 0.00028953,
        "meta_mean_motion_ddot": 0,
        "tle_line1": "1 33960U 97051BV  25359.22688384  .00028953  00000+0  33150-2 0  9998",
        "tle_line2": "2 33960  86.2536 283.6250 0007120  40.2762 117.1515 14.85811675890521"
      },
      "geometry": {
        "type": "Point",
        "coordinates": [
          -49.89620246564441,
          81.69242143215166
        ]
      }
    },
    {
      "type": "Feature",
      "properties": {
        "norad_id": 33966,
        "name": "IRIDIUM 33 DEB",
        "group": "iridium-33-debris",
        "lat": -3.216627032386604,
        "lon": -139.29661470137393,
        "alt_km": 725.1927282940824,
        "timestamp": "2025-12-25T14:48:25.157758+00:00",
        "meta_object_name": "IRIDIUM 33 DEB",
        "meta_object_id": "1997-051CB",
        "meta_epoch": "2025-12-25T02:38:32.610624",
        "meta_mean_motion": 14.49640372,
        "meta_eccentricity": 0.00087528,
        "meta_inclination": 86.391,
        "meta_ra_of_asc_node": 40.7177,
        "meta_arg_of_pericenter": 149.9673,
        "meta_mean_anomaly": 269.6279,
        "meta_ephemeris_type": 0,
        "meta_classification_type": "U",
        "meta_norad_cat_id": 33966,
        "meta_element_set_no": 999,
        "meta_rev_at_epoch": 88621,
        "meta_bstar": 0.00049068622,
        "meta_mean_motion_dot": 1.906e-05,
        "meta_mean_motion_ddot": 0,
        "tle_line1": "1 33966U 97051CB  25359.11009966  .00001906  00000+0  49069-3 0  9991",
        "tle_line2": "2 33966  86.3910  40.7177 0008752 149.9673 269.6279 14.49640372886219"
      },
      "geometry": {
        "type": "Point",
        "coordinates": [
          -139.29661470137393,
          -3.216627032386604
        ]
      }
    },
    {
      "type": "Feature",
      "properties": {
        "norad_id": 34071,
        "name": "IRIDIUM 33 DEB",
        "group": "iridium-33-debris",
        "lat": -63.438661118624545,
        "lon": -160.4236580952133,
        "alt_km": 741.4230410004693,
        "timestamp": "2025-12-25T14:48:25.157767+00:00",
        "meta_object_name": "IRIDIUM 33 DEB",
        "meta_object_id": "1997-051CE",
        "meta_epoch": "2025-12-25T00:25:57.741024",
        "meta_mean_motion": 14.49517656,
        "meta_eccentricity": 0.00098633,
        "meta_inclination": 86.345,
        "meta_ra_of_asc_node": 12.4906,
        "meta_arg_of_pericenter": 74.9125,
        "meta_mean_anomaly": 285.317,
        "meta_ephemeris_type": 0,
        "meta_classification_type": "U",
        "meta_norad_cat_id": 34071,
        "meta_element_set_no": 999,
        "meta_rev_at_epoch": 88512,
        "meta_bstar": 0.00064465613,
        "meta_mean_motion_dot": 2.491e-05,
        "meta_mean_motion_ddot": 0,
        "tle_line1": "1 34071U 97051CE  25359.01802941  .00002491  00000+0  64466-3 0  9990",
        "tle_line2": "2 34071  86.3450  12.4906 0009863  74.9125 285.3170 14.49517656885127"
      },
      "geometry": {
        "type": "Point",
        "coordinates": [
          -160.4236580952133,
          -63.438661118624545
        ]
      }
    },
    {
      "type": "Feature",
      "properties": {
        "norad_id": 34077,
        "name": "IRIDIUM 33 DEB",
        "group": "iridium-33-debris",
        "lat": 79.04940873380477,
        "lon": 64.90594314503231,
        "alt_km": 669.0463790464255,
        "timestamp": "2025-12-25T14:48:25.157779+00:00",
        "meta_object_name": "IRIDIUM 33 DEB",
        "meta_object_id": "1997-051CL",
        "meta_epoch": "2025-12-25T03:14:00.034368",
        "meta_mean_motion": 14.64988618,
        "meta_eccentricity": 0.0008744,
        "meta_inclination": 86.3848,
        "meta_ra_of_asc_node": 46.0463,
        "meta_arg_of_pericenter": 358.5908,
        "meta_mean_anomaly": 59.3441,
        "meta_ephemeris_type": 0,
        "meta_classification_type": "U",
        "meta_norad_cat_id": 34077,
        "meta_element_set_no": 999,
        "meta_rev_at_epoch": 88514,
        "meta_bstar": 0.0015691303,
        "meta_mean_motion_dot": 8.432e-05,
        "meta_mean_motion_ddot": 0,
        "tle_line1": "1 34077U 97051CL  25359.13472262  .00008432  00000+0  15691-2 0  9994",
        "tle_line2": "2 34077  86.3848  46.0463 0008744 358.5908  59.3441 14.64988618885141"
      },
      "geometry": {
        "type": "Point",
        "coordinates": [
          64.90594314503231,
          79.04940873380477
        ]
      }
    },
    {
      "type": "Feature",
      "properties": {
        "norad_id": 34079,
        "name": "IRIDIUM 33 DEB",
        "group": "iridium-33-debris",
        "lat": -40.64972108162937,
        "lon": -174.07823478069812,
        "alt_km": 624.2533826743056,
        "timestamp": "2025-12-25T14:48:25.157788+00:00",
        "meta_object_name": "IRIDIUM 33 DEB",
        "meta_object_id": "1997-051CN",
        "meta_epoch": "2025-12-25T01:08:56.152032",
        "meta_mean_motion": 14.83849832,
        "meta_eccentricity": 0.0004071,
        "meta_inclination": 86.3776,
        "meta_ra_of_asc_node": 3.0626,
        "meta_arg_of_pericenter": 321.815,
        "meta_mean_anomaly": 100.8953,
        "meta_ephemeris_type": 0,
        "meta_classification_type": "U",
        "meta_norad_cat_id": 34079,
        "meta_element_set_no": 999,
        "meta_rev_at_epoch": 89160,
        "meta_bstar": 0.001993722,
        "meta_mean_motion_dot": 0.00016581,
        "meta_mean_motion_ddot": 0,
        "tle_line1": "1 34079U 97051CN  25359.04787213  .00016581  00000+0  19937-2 0  9992",
        "tle_line2": "2 34079  86.3776   3.0626 0004071 321.8150 100.8953 14.83849832891601"
      },
      "geometry": {
        "type": "Point",
        "coordinates": [
          -174.07823478069812,
          -40.64972108162937
        ]
      }
    }
  ]
}